sat44203
1 44203U 19006CP  20046.58095952  .00247598  23588-4  60946-3 0  9997
2 44203  96.0960 275.5627 0087461 240.7577 118.4934 15.89482125 48341
